{"fetched_at":"2026-03-29T16:36:15Z","count":15609,"tles":[{"name":"STARLINK-32637","line1":"1 62032U 24216A   26087.87046354  .00027439  00000+0  10024-2 0  9991","line2":"2 62032  43.0023 147.6115 0001895 272.1038  87.9596 15.27595325 76818","category":"Starlink"}]}